CORVUS BC2              
1 42846U 17042X   18139.76701237  .00000090  00000-0  14258-4 0  9996
2 42846  97.5996  43.6628 0008245 295.9570  64.0800 14.91807993 46139
CORVUS BC1              
1 42847U 17042Y   18139.74656686  .00000347  00000-0  39636-4 0  9994
2 42847  97.5995  43.6881 0007899 295.6330  64.4073 14.91906926 46126
SILU-1 (SILKROAD 1)     
1 42903U 17021F   18140.05672106  .00023757  00000-0  19013-3 0  9991
2 42903  42.7777 138.4700 0010320 103.3138   1.0893 15.70508724 45506
MIRATA                  
1 43015U 17073C   18139.86013525  .00001818  00000-0  14861-3 0  9994
2 43015  97.7033  72.0677 0258709   4.1331 356.1933 14.78069543 26955
ASTERIA                 
1 43020U 98067NH  18140.19594221  .00005001  00000-0  70124-4 0  9990
2 43020  51.6403 154.8967 0003348  62.7032 297.4301 15.58724297 28127
DELLINGR (RBLE)         
1 43021U 98067NJ  18140.21716075  .00005029  00000-0  74511-4 0  9991
2 43021  51.6380 155.7722 0003079  57.5881 302.5409 15.57193479 28113
TECHEDSAT 6             
1 43026U 98067NK  18135.04917276  .24108771  12366-4  25107-2 0  9998
2 43026  51.6059 164.5237 0004943 311.1143  50.3672 16.36895032 27437
OSIRIS-3U               
1 43027U 98067NL  18140.22219524  .00020056  00000-0  22230-3 0  9992
2 43027  51.6367 152.0476 0005018  39.1935 320.9422 15.62945512 28041
AEROCUBE 7B             
1 43042U 17071F   18139.73946861  .00002137  00000-0  65240-4 0  9999
2 43042  51.6379 180.0876 0005119 156.4017 203.7202 15.38696140 25226
AEROCUBE 7C             
1 43043U 17071G   18139.54461245  .00002012  00000-0  62043-4 0  9997
2 43043  51.6382 181.0398 0005150 157.7554 202.3654 15.38691308 25166
CHEFSAT                 
1 43044U 17071H   18139.69874412  .00002529  00000-0  73495-4 0  9994
2 43044  51.6383 179.8326 0004965 157.8965 202.2234 15.39481243 25196
ASGARDIA 1              
1 43049U 17071N   18139.72271305  .00002468  00000-0  73425-4 0  9990
2 43049  51.6382 179.9841 0002455 172.5847 187.5174 15.38829445 25184
ISARA                   
1 43050U 17071P   18139.76322113  .00003209  00000-0  90896-4 0  9995
2 43050  51.6378 179.5127 0002258 169.4028 190.7004 15.39349045 25206
FAUNA                   
1 43052U 17071R   18140.16813964  .00002335  00000-0  69727-4 0  9990
2 43052  51.6382 177.7149 0002396 169.6713 190.4321 15.38954352 25259
CORVUS BC3              
1 43118U 18004H   18139.67856464  .00000773  00000-0  36750-4 0  9990
2 43118  97.5353 202.2092 0010425 185.9215 174.1899 15.22198341 19376
MICROMAS-2A             
1 43131U 18004W   18139.91140061  .00001734  00000-0  77467-4 0  9999
2 43131  97.5360 202.5217 0009648 187.3794 172.7302 15.22698104 19414
GOMX4-B                 
1 43196U 18015E   18139.90173949  .00000379  00000-0  18752-4 0  9998
2 43196  97.3424 269.4250 0017722 255.9037 104.0230 15.23535098 16224
GOMX4-A                 
1 43197U 18015F   18140.04856712  .00000395  00000-0  19385-4 0  9993
2 43197  97.3426 269.5694 0017774 256.8637 191.9891 15.23629083 16252
UBAKUSAT                
1 43466U 98067NP  18140.10219369  .00009429  00000-0  14453-3 0  9992
2 43466  51.6398 158.6584 0001314  46.3974 353.9755 15.55065372  1339
1KUNS-PF                
1 43467U 98067NQ  18140.10179814  .00006979  00000-0  10867-3 0  9995
2 43467  51.6400 158.6546 0003332  39.4457   0.8254 15.55112037  1336
IRAZU                   
1 43468U 98067NR  18139.45213282  .00010664  00000-0  16226-3 0  9991
2 43468  51.6390 161.8974 0001331  22.7511 337.3569 15.55109438101215
